{
    "links": {
        "self": "http://www.neowsapp.com/rest/v1/neo/3840728?api_key=iIulBulltgU6a56xZRHN4H3l9WmuAYTsLGpBGhQ2"
    },
    "id": "3840728",
    "neo_reference_id": "3840728",
    "name": "(2019 FD1)",
    "designation": "2019 FD1",
    "nasa_jpl_url": "http://ssd.jpl.nasa.gov/sbdb.cgi?sstr=3840728",
    "absolute_magnitude_h": 23.5,
    "estimated_diameter": {
        "kilometers": {
            "estimated_diameter_min": 0.0530340723,
            "estimated_diameter_max": 0.1185877909
        },
        "meters": {
            "estimated_diameter_min": 53.0340723319,
            "estimated_diameter_max": 118.5877908577
        },
        "miles": {
            "estimated_diameter_min": 0.0329538346,
            "estimated_diameter_max": 0.0736870142
        },
        "feet": {
            "estimated_diameter_min": 173.9963058693,
            "estimated_diameter_max": 389.0675677576
        }
    },
    "is_potentially_hazardous_asteroid": false,
    "close_approach_data": [
        {
            "close_approach_date": "2019-03-23",
            "close_approach_date_full": "2019-Mar-23 03:11",
            "epoch_date_close_approach": 1553310660000,
            "relative_velocity": {
                "kilometers_per_second": "10.205433817",
                "kilometers_per_hour": "36739.5617412324",
                "miles_per_hour": "22828.5349052674"
            },
            "miss_distance": {
                "astronomical": "0.0747736564",
                "lunar": "29.0869523396",
                "kilometers": "11185979.729551868",
                "miles": "6950645.4982290584"
            },
            "orbiting_body": "Earth"
        }
    ],
    "orbital_data": {
        "orbit_id": "10",
        "orbit_determination_date": "2020-09-22 06:45:11",
        "first_observation_date": "2019-03-28",
        "last_observation_date": "2019-04-14",
        "data_arc_in_days": 17,
        "observations_used": 130,
        "orbit_uncertainty": "7",
        "minimum_orbit_intersection": ".0507772",
        "jupiter_tisserand_invariant": "3.907",
        "epoch_osculation": "2459000.5",
        "eccentricity": ".4619314135504954",
        "semi_major_axis": "1.81143659996825",
        "inclination": "8.752814540062861",
        "ascending_node_longitude": "190.252200459007",
        "orbital_period": "890.4983814870166",
        "perihelion_distance": ".9746771307878129",
        "perihelion_argument": "312.1641907896146",
        "aphelion_distance": "2.648196069148687",
        "perihelion_time": "2459425.566280778749",
        "mean_anomaly": "188.1593046527276",
        "mean_motion": ".4042680003514962",
        "equinox": "J2000",
        "orbit_class": {
            "orbit_class_type": "APO",
            "orbit_class_description": "Near-Earth asteroid orbits which cross the Earth’s orbit similar to that of 1862 Apollo",
            "orbit_class_range": "a (semi-major axis) > 1.0 AU; q (perihelion) < 1.017 AU"
        }
    },
    "is_sentry_object": false
}